{
  "type": "FeatureCollection",
  "features": [
    {
      "type": "Feature",
      "properties": {
        "norad_id": 66642,
        "name": "STARLINK-35926",
        "group": "last-30-days",
        "lat": 38.82700926588405,
        "lon": -3.1708902389667717,
        "alt_km": 341.5250142561017,
        "timestamp": "2025-12-07T05:38:08.685867+00:00",
        "meta_object_name": "STARLINK-35926",
        "meta_object_id": "2025-271AB",
        "meta_epoch": "2025-12-06T14:00:01.999872",
        "meta_mean_motion": 15.74161389,
        "meta_eccentricity": 6.059e-05,
        "meta_inclination": 53.1576,
        "meta_ra_of_asc_node": 217.1794,
        "meta_arg_of_pericenter": 91.359,
        "meta_mean_anomaly": 302.9477,
        "meta_ephemeris_type": 0,
        "meta_classification_type": "U",
        "meta_norad_cat_id": 66642,
        "meta_element_set_no": 999,
        "meta_rev_at_epoch": 301,
        "meta_bstar": 0.00019274236,
        "meta_mean_motion_dot": 0.00027658,
        "meta_mean_motion_ddot": 0,
        "tle_line1": "1 66642U 25271AB  25340.58335648  .00027658  00000+0  19274-3 0  9990",
        "tle_line2": "2 66642  53.1576 217.1794 0000605  91.3590 302.9477 15.74161389  3013"
      },
      "geometry": {
        "type": "Point",
        "coordinates": [
          -3.1708902389667717,
          38.82700926588405
        ]
      }
    },
    {
      "type": "Feature",
      "properties": {
        "norad_id": 66643,
        "name": "STARLINK-35918",
        "group": "last-30-days",
        "lat": 41.19532999551459,
        "lon": -7.063877800020504,
        "alt_km": 340.61522285489445,
        "timestamp": "2025-12-07T05:38:08.685877+00:00",
        "meta_object_name": "STARLINK-35918",
        "meta_object_id": "2025-271AC",
        "meta_epoch": "2025-12-06T14:00:01.999872",
        "meta_mean_motion": 15.74132185,
        "meta_eccentricity": 0.00012522,
        "meta_inclination": 53.1576,
        "meta_ra_of_asc_node": 217.1877,
        "meta_arg_of_pericenter": 96.0698,
        "meta_mean_anomaly": 294.4111,
        "meta_ephemeris_type": 0,
        "meta_classification_type": "U",
        "meta_norad_cat_id": 66643,
        "meta_element_set_no": 999,
        "meta_rev_at_epoch": 325,
        "meta_bstar": 0.00057347246,
        "meta_mean_motion_dot": 0.00083991,
        "meta_mean_motion_ddot": 0,
        "tle_line1": "1 66643U 25271AC  25340.58335648  .00083991  00000+0  57347-3 0  9996",
        "tle_line2": "2 66643  53.1576 217.1877 0001252  96.0698 294.4111 15.74132185  3254"
      },
      "geometry": {
        "type": "Point",
        "coordinates": [
          -7.063877800020504,
          41.19532999551459
        ]
      }
    },
    {
      "type": "Feature",
      "properties": {
        "norad_id": 66644,
        "name": "STARLINK-35938",
        "group": "last-30-days",
        "lat": 40.02820291762738,
        "lon": -5.085355266240437,
        "alt_km": 341.2135952565877,
        "timestamp": "2025-12-07T05:38:08.685888+00:00",
        "meta_object_name": "STARLINK-35938",
        "meta_object_id": "2025-271AD",
        "meta_epoch": "2025-12-06T14:00:01.999872",
        "meta_mean_motion": 15.74143768,
        "meta_eccentricity": 5.748e-05,
        "meta_inclination": 53.1574,
        "meta_ra_of_asc_node": 217.1832,
        "meta_arg_of_pericenter": 122.9314,
        "meta_mean_anomaly": 269.4646,
        "meta_ephemeris_type": 0,
        "meta_classification_type": "U",
        "meta_norad_cat_id": 66644,
        "meta_element_set_no": 999,
        "meta_rev_at_epoch": 325,
        "meta_bstar": 0.00042081332,
        "meta_mean_motion_dot": 0.00061328,
        "meta_mean_motion_ddot": 0,
        "tle_line1": "1 66644U 25271AD  25340.58335648  .00061328  00000+0  42081-3 0  9996",
        "tle_line2": "2 66644  53.1574 217.1832 0000574 122.9314 269.4646 15.74143768  3258"
      },
      "geometry": {
        "type": "Point",
        "coordinates": [
          -5.085355266240437,
          40.02820291762738
        ]
      }
    },
    {
      "type": "Feature",
      "properties": {
        "norad_id": 66645,
        "name": "SHENZHOU-22",
        "group": "last-30-days",
        "lat": 9.796388411122118,
        "lon": -141.15721130628745,
        "alt_km": 395.70300590264924,
        "timestamp": "2025-12-07T05:38:08.685898+00:00",
        "meta_object_name": "SHENZHOU-22",
        "meta_object_id": "2025-272A",
        "meta_epoch": "2025-12-06T15:05:32.998560",
        "meta_mean_motion": 15.5879906,
        "meta_eccentricity": 0.00095344,
        "meta_inclination": 41.4683,
        "meta_ra_of_asc_node": 53.7961,
        "meta_arg_of_pericenter": 342.8614,
        "meta_mean_anomaly": 17.1901,
        "meta_ephemeris_type": 0,
        "meta_classification_type": "U",
        "meta_norad_cat_id": 66645,
        "meta_element_set_no": 999,
        "meta_rev_at_epoch": 26300,
        "meta_bstar": 0.00036466504,
        "meta_mean_motion_dot": 0.00028802,
        "meta_mean_motion_ddot": 0,
        "tle_line1": "1 66645U 25272A   25340.62885415  .00028802  00000+0  36467-3 0  9996",
        "tle_line2": "2 66645  41.4683  53.7961 0009534 342.8614  17.1901 15.58799060263005"
      },
      "geometry": {
        "type": "Point",
        "coordinates": [
          -141.15721130628745,
          9.796388411122118
        ]
      }
    },
    {
      "type": "Feature",
      "properties": {
        "norad_id": 66646,
        "name": "CZ-2F R/B",
        "group": "last-30-days",
        "lat": -12.803094955035936,
        "lon": 29.17314702465817,
        "alt_km": 180.11329413612202,
        "timestamp": "2025-12-07T05:38:08.685911+00:00",
        "meta_object_name": "CZ-2F R/B",
        "meta_object_id": "2025-272B",
        "meta_epoch": "2025-12-06T20:55:41.021184",
        "meta_mean_motion": 16.34691308,
        "meta_eccentricity": 0.0038093,
        "meta_inclination": 41.4537,
        "meta_ra_of_asc_node": 46.5611,
        "meta_arg_of_pericenter": 222.6714,
        "meta_mean_anomaly": 137.119,
        "meta_ephemeris_type": 0,
        "meta_classification_type": "U",
        "meta_norad_cat_id": 66646,
        "meta_element_set_no": 999,
        "meta_rev_at_epoch": 189,
        "meta_bstar": 0.00045837,
        "meta_mean_motion_dot": 0.04803871,
        "meta_mean_motion_ddot": 7.8554e-06,
        "tle_line1": "1 66646U 25272B   25340.87200256  .04803871  78554-5  45837-3 0  9995",
        "tle_line2": "2 66646  41.4537  46.5611 0038093 222.6714 137.1190 16.34691308  1895"
      },
      "geometry": {
        "type": "Point",
        "coordinates": [
          29.17314702465817,
          -12.803094955035936
        ]
      }
    },
    {
      "type": "Feature",
      "properties": {
        "norad_id": 66647,
        "name": "COSMOS 2597 (RODNIK-S 22)",
        "group": "last-30-days",
        "lat": -11.642075063277217,
        "lon": -71.68774577140219,
        "alt_km": 1498.0402355989872,
        "timestamp": "2025-12-07T05:38:08.685921+00:00",
        "meta_object_name": "COSMOS 2597 (RODNIK-S 22)",
        "meta_object_id": "2025-273A",
        "meta_epoch": "2025-12-06T14:13:54.075072",
        "meta_mean_motion": 12.41951156,
        "meta_eccentricity": 0.0008033,
        "meta_inclination": 82.498,
        "meta_ra_of_asc_node": 290.2663,
        "meta_arg_of_pericenter": 303.7388,
        "meta_mean_anomaly": 56.2926,
        "meta_ephemeris_type": 0,
        "meta_classification_type": "U",
        "meta_norad_cat_id": 66647,
        "meta_element_set_no": 999,
        "meta_rev_at_epoch": 137,
        "meta_bstar": 0.00010942522,
        "meta_mean_motion_dot": 2.5e-07,
        "meta_mean_motion_ddot": 0,
        "tle_line1": "1 66647U 25273A   25340.59298698  .00000025  00000+0  10943-3 0  9994",
        "tle_line2": "2 66647  82.4980 290.2663 0008033 303.7388  56.2926 12.41951156  1372"
      },
      "geometry": {
        "type": "Point",
        "coordinates": [
          -71.68774577140219,
          -11.642075063277217
        ]
      }
    },
    {
      "type": "Feature",
      "properties": {
        "norad_id": 66648,
        "name": "COSMOS 2598 (RODNIK-S 23)",
        "group": "last-30-days",
        "lat": 0.9070213124824973,
        "lon": -70.00676593744626,
        "alt_km": 1497.6810666573974,
        "timestamp": "2025-12-07T05:38:08.685958+00:00",
        "meta_object_name": "COSMOS 2598 (RODNIK-S 23)",
        "meta_object_id": "2025-273B",
        "meta_epoch": "2025-12-05T22:42:15.560352",
        "meta_mean_motion": 12.42257804,
        "meta_eccentricity": 0.0007951,
        "meta_inclination": 82.5021,
        "meta_ra_of_asc_node": 290.6739,
        "meta_arg_of_pericenter": 291.8823,
        "meta_mean_anomaly": 68.1411,
        "meta_ephemeris_type": 0,
        "meta_classification_type": "U",
        "meta_norad_cat_id": 66648,
        "meta_element_set_no": 999,
        "meta_rev_at_epoch": 129,
        "meta_bstar": -5.8823389e-05,
        "meta_mean_motion_dot": 2e-08,
        "meta_mean_motion_ddot": 0,
        "tle_line1": "1 66648U 25273B   25339.94601343  .00000002  00000+0 -58823-4 0  9993",
        "tle_line2": "2 66648  82.5021 290.6739 0007951 291.8823  68.1411 12.42257804  1299"
      },
      "geometry": {
        "type": "Point",
        "coordinates": [
          -70.00676593744626,
          0.9070213124824973
        ]
      }
    }
  ]
}